[
  {
    "OBJECT_NAME": "STARLINK-1321",
    "OBJECT_ID": "20025AU",
    "EPOCH": "2025-11-11T05:53:15.311040",
    "MEAN_MOTION": 15.06408799,
    "ECCENTRICITY": 0.0001296,
    "INCLINATION": 53.0545,
    "RA_OF_ASC_NODE": 248.3368,
    "ARG_OF_PERICENTER": 90.2671,
    "MEAN_ANOMALY": 269.8467,
    "EPHEMERIS_TYPE": 0,
    "CLASSIFICATION_TYPE": "U",
    "NORAD_CAT_ID": 45573,
    "ELEMENT_SET_NO": 999,
    "REV_AT_EPOCH": 30735,
    "BSTAR": 0.0005403900000000001,
    "MEAN_MOTION_DOT": 7.779e-05,
    "MEAN_MOTION_DDOT": 0.0,
    "TLE_LINE1": "1 45573U 20025AU  25315.24531610  .00007779  00000+0  54039-3 0  9994",
    "TLE_LINE2": "2 45573  53.0545 248.3368 0001296  90.2671 269.8467 15.06408799307354",
    "COMMENT": "Grouped by shell and plane from TLE"
  },
  {
    "OBJECT_NAME": "STARLINK-1331",
    "OBJECT_ID": "20025AZ",
    "EPOCH": "2025-11-11T02:10:20.122752",
    "MEAN_MOTION": 15.06393321,
    "ECCENTRICITY": 0.0001585,
    "INCLINATION": 53.0547,
    "RA_OF_ASC_NODE": 249.0303,
    "ARG_OF_PERICENTER": 91.4121,
    "MEAN_ANOMALY": 268.7049,
    "EPHEMERIS_TYPE": 0,
    "CLASSIFICATION_TYPE": "U",
    "NORAD_CAT_ID": 45578,
    "ELEMENT_SET_NO": 999,
    "REV_AT_EPOCH": 30764,
    "BSTAR": 8.5634e-05,
    "MEAN_MOTION_DOT": 9.94e-06,
    "MEAN_MOTION_DDOT": 0.0,
    "TLE_LINE1": "1 45578U 20025AZ  25315.09051068  .00000994  00000+0  85634-4 0  9994",
    "TLE_LINE2": "2 45578  53.0547 249.0303 0001585  91.4121 268.7049 15.06393321307642",
    "COMMENT": "Grouped by shell and plane from TLE"
  },
  {
    "OBJECT_NAME": "STARLINK-1335",
    "OBJECT_ID": "20025BC",
    "EPOCH": "2025-11-11T05:37:19.454016",
    "MEAN_MOTION": 15.06402681,
    "ECCENTRICITY": 0.0001567,
    "INCLINATION": 53.0545,
    "RA_OF_ASC_NODE": 248.3865,
    "ARG_OF_PERICENTER": 94.8193,
    "MEAN_ANOMALY": 265.2975,
    "EPHEMERIS_TYPE": 0,
    "CLASSIFICATION_TYPE": "U",
    "NORAD_CAT_ID": 45581,
    "ELEMENT_SET_NO": 999,
    "REV_AT_EPOCH": 30765,
    "BSTAR": 0.00053507,
    "MEAN_MOTION_DOT": 7.698e-05,
    "MEAN_MOTION_DDOT": 0.0,
    "TLE_LINE1": "1 45581U 20025BC  25315.23425294  .00007698  00000+0  53507-3 0  9991",
    "TLE_LINE2": "2 45581  53.0545 248.3865 0001567  94.8193 265.2975 15.06402681307656",
    "COMMENT": "Grouped by shell and plane from TLE"
  },
  {
    "OBJECT_NAME": "STARLINK-1337",
    "OBJECT_ID": "20025BD",
    "EPOCH": "2025-11-11T04:33:38.319840",
    "MEAN_MOTION": 15.06400553,
    "ECCENTRICITY": 0.0001403,
    "INCLINATION": 53.0542,
    "RA_OF_ASC_NODE": 248.5866,
    "ARG_OF_PERICENTER": 83.0503,
    "MEAN_ANOMALY": 277.0645,
    "EPHEMERIS_TYPE": 0,
    "CLASSIFICATION_TYPE": "U",
    "NORAD_CAT_ID": 45582,
    "ELEMENT_SET_NO": 999,
    "REV_AT_EPOCH": 30764,
    "BSTAR": 0.00032267,
    "MEAN_MOTION_DOT": 4.528e-05,
    "MEAN_MOTION_DDOT": 0.0,
    "TLE_LINE1": "1 45582U 20025BD  25315.19002685  .00004528  00000+0  32267-3 0  9991",
    "TLE_LINE2": "2 45582  53.0542 248.5866 0001403  83.0503 277.0645 15.06400553307641",
    "COMMENT": "Grouped by shell and plane from TLE"
  },
  {
    "OBJECT_NAME": "STARLINK-1364",
    "OBJECT_ID": "20025BL",
    "EPOCH": "2025-11-11T04:38:56.784192",
    "MEAN_MOTION": 15.06398722,
    "ECCENTRICITY": 0.0001714,
    "INCLINATION": 53.0548,
    "RA_OF_ASC_NODE": 248.5716,
    "ARG_OF_PERICENTER": 95.6903,
    "MEAN_ANOMALY": 264.4281,
    "EPHEMERIS_TYPE": 0,
    "CLASSIFICATION_TYPE": "U",
    "NORAD_CAT_ID": 45589,
    "ELEMENT_SET_NO": 999,
    "REV_AT_EPOCH": 30764,
    "BSTAR": 0.00033261,
    "MEAN_MOTION_DOT": 4.676e-05,
    "MEAN_MOTION_DDOT": 0.0,
    "TLE_LINE1": "1 45589U 20025BL  25315.19371278  .00004676  00000+0  33261-3 0  9994",
    "TLE_LINE2": "2 45589  53.0548 248.5716 0001714  95.6903 264.4281 15.06398722307646",
    "COMMENT": "Grouped by shell and plane from TLE"
  },
  {
    "OBJECT_NAME": "STARLINK-1609",
    "OBJECT_ID": "21012B",
    "EPOCH": "2025-11-11T05:19:24.879936",
    "MEAN_MOTION": 15.06407321,
    "ECCENTRICITY": 0.0001358,
    "INCLINATION": 53.0537,
    "RA_OF_ASC_NODE": 243.4434,
    "ARG_OF_PERICENTER": 95.4259,
    "MEAN_ANOMALY": 264.6885,
    "EPHEMERIS_TYPE": 0,
    "CLASSIFICATION_TYPE": "U",
    "NORAD_CAT_ID": 47621,
    "ELEMENT_SET_NO": 999,
    "REV_AT_EPOCH": 26213,
    "BSTAR": 0.00060914,
    "MEAN_MOTION_DOT": 8.805e-05,
    "MEAN_MOTION_DDOT": 0.0,
    "TLE_LINE1": "1 47621U 21012B   25315.22181574  .00008805  00000+0  60914-3 0  9995",
    "TLE_LINE2": "2 47621  53.0537 243.4434 0001358  95.4259 264.6885 15.06407321262132",
    "COMMENT": "Grouped by shell and plane from TLE"
  },
  {
    "OBJECT_NAME": "STARLINK-1704",
    "OBJECT_ID": "21012F",
    "EPOCH": "2025-11-11T03:47:48.804864",
    "MEAN_MOTION": 15.06393754,
    "ECCENTRICITY": 0.0001717,
    "INCLINATION": 53.0541,
    "RA_OF_ASC_NODE": 243.7169,
    "ARG_OF_PERICENTER": 95.6861,
    "MEAN_ANOMALY": 264.4324,
    "EPHEMERIS_TYPE": 0,
    "CLASSIFICATION_TYPE": "U",
    "NORAD_CAT_ID": 47625,
    "ELEMENT_SET_NO": 999,
    "REV_AT_EPOCH": 26211,
    "BSTAR": 0.0,
    "MEAN_MOTION_DOT": -2.408e-05,
    "MEAN_MOTION_DDOT": 0.0,
    "TLE_LINE1": "1 47625U 21012F   25315.15820376 -.00002408  00000+0 -14280-3 0  9991",
    "TLE_LINE2": "2 47625  53.0541 243.7169 0001717  95.6861 264.4324 15.06393754262117",
    "COMMENT": "Grouped by shell and plane from TLE"
  },
  {
    "OBJECT_NAME": "STARLINK-1973",
    "OBJECT_ID": "21012J",
    "EPOCH": "2025-11-11T05:55:12.727776",
    "MEAN_MOTION": 15.06400289,
    "ECCENTRICITY": 0.0001503,
    "INCLINATION": 53.0543,
    "RA_OF_ASC_NODE": 243.3217,
    "ARG_OF_PERICENTER": 89.6781,
    "MEAN_ANOMALY": 270.438,
    "EPHEMERIS_TYPE": 0,
    "CLASSIFICATION_TYPE": "U",
    "NORAD_CAT_ID": 47628,
    "ELEMENT_SET_NO": 999,
    "REV_AT_EPOCH": 26213,
    "BSTAR": 0.0008026600000000001,
    "MEAN_MOTION_DOT": 0.00011694,
    "MEAN_MOTION_DDOT": 0.0,
    "TLE_LINE1": "1 47628U 21012J   25315.24667509  .00011694  00000+0  80266-3 0  9993",
    "TLE_LINE2": "2 47628  53.0543 243.3217 0001503  89.6781 270.4380 15.06400289262132",
    "COMMENT": "Grouped by shell and plane from TLE"
  },
  {
    "OBJECT_NAME": "STARLINK-2036",
    "OBJECT_ID": "21012AJ",
    "EPOCH": "2025-11-11T04:30:17.764704",
    "MEAN_MOTION": 15.06392977,
    "ECCENTRICITY": 0.0001142,
    "INCLINATION": 53.054,
    "RA_OF_ASC_NODE": 243.5866,
    "ARG_OF_PERICENTER": 88.1321,
    "MEAN_ANOMALY": 271.9799,
    "EPHEMERIS_TYPE": 0,
    "CLASSIFICATION_TYPE": "U",
    "NORAD_CAT_ID": 47652,
    "ELEMENT_SET_NO": 999,
    "REV_AT_EPOCH": 26212,
    "BSTAR": 0.0001838,
    "MEAN_MOTION_DOT": 2.457e-05,
    "MEAN_MOTION_DDOT": 0.0,
    "TLE_LINE1": "1 47652U 21012AJ  25315.18770561  .00002457  00000+0  18380-3 0  9991",
    "TLE_LINE2": "2 47652  53.0540 243.5866 0001142  88.1321 271.9799 15.06392977262124",
    "COMMENT": "Grouped by shell and plane from TLE"
  },
  {
    "OBJECT_NAME": "STARLINK-2039",
    "OBJECT_ID": "21012AM",
    "EPOCH": "2025-11-11T04:26:20.591520",
    "MEAN_MOTION": 15.06389433,
    "ECCENTRICITY": 0.000132,
    "INCLINATION": 53.0548,
    "RA_OF_ASC_NODE": 243.6101,
    "ARG_OF_PERICENTER": 72.3855,
    "MEAN_ANOMALY": 287.7278,
    "EPHEMERIS_TYPE": 0,
    "CLASSIFICATION_TYPE": "U",
    "NORAD_CAT_ID": 47655,
    "ELEMENT_SET_NO": 999,
    "REV_AT_EPOCH": 26212,
    "BSTAR": 0.001452,
    "MEAN_MOTION_DOT": 0.00021406,
    "MEAN_MOTION_DDOT": 0.0,
    "TLE_LINE1": "1 47655U 21012AM  25315.18496055  .00021406  00000+0  14520-2 0  9993",
    "TLE_LINE2": "2 47655  53.0548 243.6101 0001320  72.3855 287.7278 15.06389433262123",
    "COMMENT": "Grouped by shell and plane from TLE"
  },
  {
    "OBJECT_NAME": "STARLINK-2041",
    "OBJECT_ID": "21012AP",
    "EPOCH": "2025-11-11T04:58:11.206560",
    "MEAN_MOTION": 15.06407308,
    "ECCENTRICITY": 0.0001595,
    "INCLINATION": 53.0543,
    "RA_OF_ASC_NODE": 243.5066,
    "ARG_OF_PERICENTER": 90.5082,
    "MEAN_ANOMALY": 269.609,
    "EPHEMERIS_TYPE": 0,
    "CLASSIFICATION_TYPE": "U",
    "NORAD_CAT_ID": 47657,
    "ELEMENT_SET_NO": 999,
    "REV_AT_EPOCH": 26212,
    "BSTAR": 0.00058075,
    "MEAN_MOTION_DOT": 8.381e-05,
    "MEAN_MOTION_DDOT": 0.0,
    "TLE_LINE1": "1 47657U 21012AP  25315.20707415  .00008381  00000+0  58075-3 0  9994",
    "TLE_LINE2": "2 47657  53.0543 243.5066 0001595  90.5082 269.6090 15.06407308262120",
    "COMMENT": "Grouped by shell and plane from TLE"
  },
  {
    "OBJECT_NAME": "STARLINK-2743",
    "OBJECT_ID": "21044AW",
    "EPOCH": "2025-11-11T05:24:46.323360",
    "MEAN_MOTION": 15.064596,
    "ECCENTRICITY": 0.0001481,
    "INCLINATION": 53.057,
    "RA_OF_ASC_NODE": 243.5891,
    "ARG_OF_PERICENTER": 91.1748,
    "MEAN_ANOMALY": 268.9411,
    "EPHEMERIS_TYPE": 0,
    "CLASSIFICATION_TYPE": "U",
    "NORAD_CAT_ID": 48682,
    "ELEMENT_SET_NO": 999,
    "REV_AT_EPOCH": 24654,
    "BSTAR": 0.0012792,
    "MEAN_MOTION_DOT": 0.00018853,
    "MEAN_MOTION_DDOT": 0.0,
    "TLE_LINE1": "1 48682U 21044AW  25315.22553615  .00018853  00000+0  12792-2 0  9991",
    "TLE_LINE2": "2 48682  53.0570 243.5891 0001481  91.1748 268.9411 15.06459600246544",
    "COMMENT": "Grouped by shell and plane from TLE"
  },
  {
    "OBJECT_NAME": "STARLINK-2756",
    "OBJECT_ID": "21044AX",
    "EPOCH": "2025-11-11T04:21:01.822176",
    "MEAN_MOTION": 15.06407006,
    "ECCENTRICITY": 9e-05,
    "INCLINATION": 53.0536,
    "RA_OF_ASC_NODE": 243.6342,
    "ARG_OF_PERICENTER": 92.2986,
    "MEAN_ANOMALY": 267.8106,
    "EPHEMERIS_TYPE": 0,
    "CLASSIFICATION_TYPE": "U",
    "NORAD_CAT_ID": 48683,
    "ELEMENT_SET_NO": 999,
    "REV_AT_EPOCH": 24654,
    "BSTAR": 0.00052563,
    "MEAN_MOTION_DOT": 7.558e-05,
    "MEAN_MOTION_DDOT": 0.0,
    "TLE_LINE1": "1 48683U 21044AX  25315.18127109  .00007558  00000+0  52563-3 0  9993",
    "TLE_LINE2": "2 48683  53.0536 243.6342 0000900  92.2986 267.8106 15.06407006246542",
    "COMMENT": "Grouped by shell and plane from TLE"
  }
]